CCSDS_OMM_VERS = 2.0
CREATION_DATE  = 
ORIGINATOR     = 

OBJECT_NAME    = STARLINK-36572
OBJECT_ID      = 2026-014E
CENTER_NAME    = EARTH
REF_FRAME      = TEME
TIME_SYSTEM    = UTC
MEAN_ELEMENT_THEORY = SGP/SGP4

EPOCH          = 2026-01-27T14:00:04.000032
MEAN_MOTION    = 16.01768680
ECCENTRICITY   = .0001162
INCLINATION    = 97.2828
RA_OF_ASC_NODE = 270.2165
ARG_OF_PERICENTER = 71.7563
MEAN_ANOMALY   = 327.0094

EPHEMERIS_TYPE = 0
CLASSIFICATION_TYPE = U
NORAD_CAT_ID   = 67536
ELEMENT_SET_NO = 999
REV_AT_EPOCH   = 208
BSTAR          = -.2217E-2
MEAN_MOTION_DOT = -.1236577E-1
MEAN_MOTION_DDOT = .49539E-3

CCSDS_OMM_VERS = 2.0
CREATION_DATE  = 
ORIGINATOR     = 

OBJECT_NAME    = STARLINK-36561
OBJECT_ID      = 2026-014F
CENTER_NAME    = EARTH
REF_FRAME      = TEME
TIME_SYSTEM    = UTC
MEAN_ELEMENT_THEORY = SGP/SGP4

EPOCH          = 2026-01-27T14:00:04.000032
MEAN_MOTION    = 16.01895094
ECCENTRICITY   = .0001094
INCLINATION    = 97.2823
RA_OF_ASC_NODE = 270.2171
ARG_OF_PERICENTER = 77.1944
MEAN_ANOMALY   = 323.0233

EPHEMERIS_TYPE = 0
CLASSIFICATION_TYPE = U
NORAD_CAT_ID   = 67537
ELEMENT_SET_NO = 999
REV_AT_EPOCH   = 208
BSTAR          = -.21888E-2
MEAN_MOTION_DOT = -.122988E-1
MEAN_MOTION_DDOT = .49115E-3

CCSDS_OMM_VERS = 2.0
CREATION_DATE  = 
ORIGINATOR     = 

OBJECT_NAME    = STARLINK-36397
OBJECT_ID      = 2026-014G
CENTER_NAME    = EARTH
REF_FRAME      = TEME
TIME_SYSTEM    = UTC
MEAN_ELEMENT_THEORY = SGP/SGP4

EPOCH          = 2026-01-27T14:00:04.000032
MEAN_MOTION    = 16.02004070
ECCENTRICITY   = .0001179
INCLINATION    = 97.2822
RA_OF_ASC_NODE = 270.2176
ARG_OF_PERICENTER = 83.9203
MEAN_ANOMALY   = 317.6165

EPHEMERIS_TYPE = 0
CLASSIFICATION_TYPE = U
NORAD_CAT_ID   = 67538
ELEMENT_SET_NO = 999
REV_AT_EPOCH   = 208
BSTAR          = -.21576E-2
MEAN_MOTION_DOT = -.1220176E-1
MEAN_MOTION_DDOT = .48461E-3

CCSDS_OMM_VERS = 2.0
CREATION_DATE  = 
ORIGINATOR     = 

OBJECT_NAME    = STARLINK-36573
OBJECT_ID      = 2026-014H
CENTER_NAME    = EARTH
REF_FRAME      = TEME
TIME_SYSTEM    = UTC
MEAN_ELEMENT_THEORY = SGP/SGP4

EPOCH          = 2026-01-27T14:00:04.000032
MEAN_MOTION    = 16.02150721
ECCENTRICITY   = .0001121
INCLINATION    = 97.2823
RA_OF_ASC_NODE = 270.2182
ARG_OF_PERICENTER = 80.4648
MEAN_ANOMALY   = 322.6384

EPHEMERIS_TYPE = 0
CLASSIFICATION_TYPE = U
NORAD_CAT_ID   = 67539
ELEMENT_SET_NO = 999
REV_AT_EPOCH   = 208
BSTAR          = -.21467E-2
MEAN_MOTION_DOT = -.1224304E-1
MEAN_MOTION_DDOT = .48847E-3

CCSDS_OMM_VERS = 2.0
CREATION_DATE  = 
ORIGINATOR     = 

OBJECT_NAME    = STARLINK-36585
OBJECT_ID      = 2026-014J
CENTER_NAME    = EARTH
REF_FRAME      = TEME
TIME_SYSTEM    = UTC
MEAN_ELEMENT_THEORY = SGP/SGP4

EPOCH          = 2026-01-27T14:00:04.000032
MEAN_MOTION    = 16.02265949
ECCENTRICITY   = .0001132
INCLINATION    = 97.2818
RA_OF_ASC_NODE = 270.2187
ARG_OF_PERICENTER = 82.3002
MEAN_ANOMALY   = 322.1998

EPHEMERIS_TYPE = 0
CLASSIFICATION_TYPE = U
NORAD_CAT_ID   = 67540
ELEMENT_SET_NO = 999
REV_AT_EPOCH   = 208
BSTAR          = -.21106E-2
MEAN_MOTION_DOT = -.1211935E-1
MEAN_MOTION_DDOT = .48002E-3

CCSDS_OMM_VERS = 2.0
CREATION_DATE  = 
ORIGINATOR     = 

OBJECT_NAME    = STARLINK-36579
OBJECT_ID      = 2026-014K
CENTER_NAME    = EARTH
REF_FRAME      = TEME
TIME_SYSTEM    = UTC
MEAN_ELEMENT_THEORY = SGP/SGP4

EPOCH          = 2026-01-27T14:00:04.000032
MEAN_MOTION    = 16.02435444
ECCENTRICITY   = .0001157
INCLINATION    = 97.2821
RA_OF_ASC_NODE = 270.2195
ARG_OF_PERICENTER = 76.4604
MEAN_ANOMALY   = 329.7948

EPHEMERIS_TYPE = 0
CLASSIFICATION_TYPE = U
NORAD_CAT_ID   = 67541
ELEMENT_SET_NO = 999
REV_AT_EPOCH   = 208
BSTAR          = -.20896E-2
MEAN_MOTION_DOT = -.1211772E-1
MEAN_MOTION_DDOT = .48084E-3

CCSDS_OMM_VERS = 2.0
CREATION_DATE  = 
ORIGINATOR     = 

OBJECT_NAME    = STARLINK-35934
OBJECT_ID      = 2026-014L
CENTER_NAME    = EARTH
REF_FRAME      = TEME
TIME_SYSTEM    = UTC
MEAN_ELEMENT_THEORY = SGP/SGP4

EPOCH          = 2026-01-27T14:00:04.000032
MEAN_MOTION    = 16.02621012
ECCENTRICITY   = .0001171
INCLINATION    = 97.2821
RA_OF_ASC_NODE = 270.2203
ARG_OF_PERICENTER = 79.0946
MEAN_ANOMALY   = 329.0662

EPHEMERIS_TYPE = 0
CLASSIFICATION_TYPE = U
NORAD_CAT_ID   = 67542
ELEMENT_SET_NO = 999
REV_AT_EPOCH   = 207
BSTAR          = -.20566E-2
MEAN_MOTION_DOT = -.1205711E-1
MEAN_MOTION_DDOT = .47743E-3

CCSDS_OMM_VERS = 2.0
CREATION_DATE  = 
ORIGINATOR     = 

OBJECT_NAME    = STARLINK-36581
OBJECT_ID      = 2026-014M
CENTER_NAME    = EARTH
REF_FRAME      = TEME
TIME_SYSTEM    = UTC
MEAN_ELEMENT_THEORY = SGP/SGP4

EPOCH          = 2026-01-27T14:00:04.000032
MEAN_MOTION    = 16.02768010
ECCENTRICITY   = .0001179
INCLINATION    = 97.2820
RA_OF_ASC_NODE = 270.2214
ARG_OF_PERICENTER = 77.4104
MEAN_ANOMALY   = 332.3977

EPHEMERIS_TYPE = 0
CLASSIFICATION_TYPE = U
NORAD_CAT_ID   = 67543
ELEMENT_SET_NO = 999
REV_AT_EPOCH   = 208
BSTAR          = -.20188E-2
MEAN_MOTION_DOT = -.1193908E-1
MEAN_MOTION_DDOT = .46963E-3

CCSDS_OMM_VERS = 2.0
CREATION_DATE  = 
ORIGINATOR     = 

OBJECT_NAME    = STARLINK-36565
OBJECT_ID      = 2026-014N
CENTER_NAME    = EARTH
REF_FRAME      = TEME
TIME_SYSTEM    = UTC
MEAN_ELEMENT_THEORY = SGP/SGP4

EPOCH          = 2026-01-27T14:00:04.000032
MEAN_MOTION    = 16.02899758
ECCENTRICITY   = .0001121
INCLINATION    = 97.2815
RA_OF_ASC_NODE = 270.2215
ARG_OF_PERICENTER = 73.4804
MEAN_ANOMALY   = 337.8151

EPHEMERIS_TYPE = 0
CLASSIFICATION_TYPE = U
NORAD_CAT_ID   = 67544
ELEMENT_SET_NO = 999
REV_AT_EPOCH   = 208
BSTAR          = -.19952E-2
MEAN_MOTION_DOT = -.1189129E-1
MEAN_MOTION_DDOT = .46687E-3

CCSDS_OMM_VERS = 2.0
CREATION_DATE  = 
ORIGINATOR     = 

OBJECT_NAME    = STARLINK-36583
OBJECT_ID      = 2026-014P
CENTER_NAME    = EARTH
REF_FRAME      = TEME
TIME_SYSTEM    = UTC
MEAN_ELEMENT_THEORY = SGP/SGP4

EPOCH          = 2026-01-27T14:00:04.000032
MEAN_MOTION    = 16.03036288
ECCENTRICITY   = .0001095
INCLINATION    = 97.2815
RA_OF_ASC_NODE = 270.2222
ARG_OF_PERICENTER = 75.3790
MEAN_ANOMALY   = 337.3980

EPHEMERIS_TYPE = 0
CLASSIFICATION_TYPE = U
NORAD_CAT_ID   = 67545
ELEMENT_SET_NO = 999
REV_AT_EPOCH   = 208
BSTAR          = -.1978E-2
MEAN_MOTION_DOT = -.1188352E-1
MEAN_MOTION_DDOT = .46705E-3

CCSDS_OMM_VERS = 2.0
CREATION_DATE  = 
ORIGINATOR     = 

OBJECT_NAME    = STARLINK-36580
OBJECT_ID      = 2026-014Q
CENTER_NAME    = EARTH
REF_FRAME      = TEME
TIME_SYSTEM    = UTC
MEAN_ELEMENT_THEORY = SGP/SGP4

EPOCH          = 2026-01-27T14:00:04.000032
MEAN_MOTION    = 16.03204021
ECCENTRICITY   = .0001152
INCLINATION    = 97.2812
RA_OF_ASC_NODE = 270.2232
ARG_OF_PERICENTER = 75.0321
MEAN_ANOMALY   = 339.5437

EPHEMERIS_TYPE = 0
CLASSIFICATION_TYPE = U
NORAD_CAT_ID   = 67546
ELEMENT_SET_NO = 999
REV_AT_EPOCH   = 208
BSTAR          = -.19411E-2
MEAN_MOTION_DOT = -.1177863E-1
MEAN_MOTION_DDOT = .46036E-3

CCSDS_OMM_VERS = 2.0
CREATION_DATE  = 
ORIGINATOR     = 

OBJECT_NAME    = STARLINK-36584
OBJECT_ID      = 2026-014R
CENTER_NAME    = EARTH
REF_FRAME      = TEME
TIME_SYSTEM    = UTC
MEAN_ELEMENT_THEORY = SGP/SGP4

EPOCH          = 2026-01-27T14:00:04.000032
MEAN_MOTION    = 16.03322001
ECCENTRICITY   = .0001061
INCLINATION    = 97.2812
RA_OF_ASC_NODE = 270.2234
ARG_OF_PERICENTER = 76.7824
MEAN_ANOMALY   = 339.1522

EPHEMERIS_TYPE = 0
CLASSIFICATION_TYPE = U
NORAD_CAT_ID   = 67547
ELEMENT_SET_NO = 999
REV_AT_EPOCH   = 208
BSTAR          = -.19192E-2
MEAN_MOTION_DOT = -.1172728E-1
MEAN_MOTION_DDOT = .45729E-3

CCSDS_OMM_VERS = 2.0
CREATION_DATE  = 
ORIGINATOR     = 

OBJECT_NAME    = STARLINK-36586
OBJECT_ID      = 2026-014S
CENTER_NAME    = EARTH
REF_FRAME      = TEME
TIME_SYSTEM    = UTC
MEAN_ELEMENT_THEORY = SGP/SGP4

EPOCH          = 2026-01-27T14:00:04.000032
MEAN_MOTION    = 16.03491835
ECCENTRICITY   = .0001158
INCLINATION    = 97.2815
RA_OF_ASC_NODE = 270.2244
ARG_OF_PERICENTER = 71.2066
MEAN_ANOMALY   = 346.4938

EPHEMERIS_TYPE = 0
CLASSIFICATION_TYPE = U
NORAD_CAT_ID   = 67548
ELEMENT_SET_NO = 999
REV_AT_EPOCH   = 208
BSTAR          = -.18965E-2
MEAN_MOTION_DOT = -.1170603E-1
MEAN_MOTION_DDOT = .45667E-3

CCSDS_OMM_VERS = 2.0
CREATION_DATE  = 
ORIGINATOR     = 

OBJECT_NAME    = STARLINK-36564
OBJECT_ID      = 2026-014T
CENTER_NAME    = EARTH
REF_FRAME      = TEME
TIME_SYSTEM    = UTC
MEAN_ELEMENT_THEORY = SGP/SGP4

EPOCH          = 2026-01-27T14:00:04.000032
MEAN_MOTION    = 16.03635074
ECCENTRICITY   = .0001143
INCLINATION    = 97.2817
RA_OF_ASC_NODE = 270.2250
ARG_OF_PERICENTER = 74.7340
MEAN_ANOMALY   = 344.5266

EPHEMERIS_TYPE = 0
CLASSIFICATION_TYPE = U
NORAD_CAT_ID   = 67549
ELEMENT_SET_NO = 999
REV_AT_EPOCH   = 202
BSTAR          = -.18702E-2
MEAN_MOTION_DOT = -.116423E-1
MEAN_MOTION_DDOT = .45284E-3

CCSDS_OMM_VERS = 2.0
CREATION_DATE  = 
ORIGINATOR     = 

OBJECT_NAME    = STARLINK-36563
OBJECT_ID      = 2026-014U
CENTER_NAME    = EARTH
REF_FRAME      = TEME
TIME_SYSTEM    = UTC
MEAN_ELEMENT_THEORY = SGP/SGP4

EPOCH          = 2026-01-27T14:00:04.000032
MEAN_MOTION    = 16.03780393
ECCENTRICITY   = .0001174
INCLINATION    = 97.2811
RA_OF_ASC_NODE = 270.2254
ARG_OF_PERICENTER = 76.7819
MEAN_ANOMALY   = 344.0214

EPHEMERIS_TYPE = 0
CLASSIFICATION_TYPE = U
NORAD_CAT_ID   = 67550
ELEMENT_SET_NO = 999
REV_AT_EPOCH   = 208
BSTAR          = -.18525E-2
MEAN_MOTION_DOT = -.1163216E-1
MEAN_MOTION_DDOT = .45289E-3

